NORAD_CAT_ID,OBJECT_NAME,OBJECT_TYPE,EPOCH,MEAN_MOTION,ECCENTRICITY,INCLINATION,RA_OF_ASC_NODE,ARG_OF_PERICENTER,MEAN_ANOMALY,BSTAR,MEAN_MOTION_DOT,MEAN_MOTION_DDOT,TLE_LINE0,TLE_LINE1,TLE_LINE2,SEMIMAJOR_AXIS,PERIOD,APOGEE,PERIGEE,DECAYED
54090.0,STARLINK-5177,PAYLOAD,2024-02-17 10:47:32,15.08839251,0.000161,53.2168,106.4796,96.3355,263.782,0.00017226,2.455e-05,0.0,0 STARLINK-5177,1 54090U 22136AR  24048.44968513  .00002455  00000-0  17226-3 0  9997,2 54090  53.2168 106.4796 0001610  96.3355 263.7820 15.08839251 73579,6917.883,95.438,540.861,538.634,0.0
54090.0,STARLINK-5177,PAYLOAD,2024-02-17 20:19:51,15.0883789,0.0001544,53.2159,104.6953,92.429,267.6878,1.1742e-05,-1.01e-06,0.0,0 STARLINK-5177,1 54090U 22136AR  24048.84712548 -.00000101  00000-0  11742-4 0  9991,2 54090  53.2159 104.6953 0001544  92.4290 267.6878 15.08837890 73635,6917.887,95.438,540.82,538.684,0.0
54090.0,STARLINK-5177,PAYLOAD,2024-02-18 04:16:47,15.08838818,0.0001558,53.2162,103.2081,89.5623,270.5548,2.0415e-05,3.7e-07,0.0,0 STARLINK-5177,1 54090U 22136AR  24049.17832662  .00000037  00000-0  20415-4 0  9992,2 54090  53.2162 103.2081 0001558  89.5623 270.5548 15.08838818 74154,6917.884,95.438,540.827,538.671,0.0
54090.0,STARLINK-5177,PAYLOAD,2024-02-18 10:38:19,15.08846878,0.0001648,53.2166,102.0203,94.3619,265.7562,0.00015104,2.117e-05,0.0,0 STARLINK-5177,1 54090U 22136AR  24049.44328241  .00002117  00000-0  15104-3 0  9994,2 54090  53.2166 102.0203 0001648  94.3619 265.7562 15.08846878 73729,6917.859,95.437,540.864,538.584,0.0
54090.0,STARLINK-5177,PAYLOAD,2024-02-18 20:10:38,15.08842308,0.0001617,53.2167,100.2354,91.8577,268.26,2.069e-05,4.1e-07,0.0,0 STARLINK-5177,1 54090U 22136AR  24049.84072313  .00000041  00000-0  20690-4 0  9995,2 54090  53.2167 100.2354 0001617  91.8577 268.2600 15.08842308 73789,6917.873,95.437,540.857,538.62,0.0
54090.0,STARLINK-5177,PAYLOAD,2024-02-19 10:29:07,15.08838044,0.0001682,53.2182,97.5588,87.0174,273.101,6.6975e-05,7.78e-06,0.0,0 STARLINK-5177,1 54090U 22136AR  24050.43688957  .00000778  00000-0  66975-4 0  9992,2 54090  53.2182  97.5588 0001682  87.0174 273.1010 15.08838044 74340,6917.886,95.438,540.915,538.588,0.0
54090.0,STARLINK-5177,PAYLOAD,2024-02-19 20:01:26,15.08839998,0.0001695,53.2181,95.7749,90.7031,269.4155,1.4665e-05,-5.5e-07,0.0,0 STARLINK-5177,1 54090U 22136AR  24050.83432991 -.00000055  00000-0  14665-4 0  9999,2 54090  53.2181  95.7749 0001695  90.7031 269.4155 15.08839998 73936,6917.88,95.438,540.918,538.573,0.0
54090.0,STARLINK-5177,PAYLOAD,2024-02-20 11:55:17,15.08845542,0.0001631,53.2178,92.8009,91.6989,268.419,3.8549e-05,3.26e-06,0.0,0 STARLINK-5177,1 54090U 22136AR  24051.49672639  .00000326  00000-0  38549-4 0  9994,2 54090  53.2178  92.8009 0001631  91.6989 268.4190 15.08845542 74505,6917.863,95.437,540.857,538.6,0.0
54090.0,STARLINK-5177,PAYLOAD,2024-02-20 19:52:12,15.08859587,0.0001594,53.2181,91.3098,77.2921,282.8249,-0.00030857,-5.198e-05,0.0,0 STARLINK-5177,1 54090U 22136AR  24051.82792357 -.00005198  00000-0 -30857-3 0  9998,2 54090  53.2181  91.3098 0001594  77.2921 282.8249 15.08859587 74087,6917.821,95.436,540.788,538.583,0.0
54090.0,STARLINK-5177,PAYLOAD,2024-02-21 02:13:46,15.0883402,0.0001708,53.2179,90.1232,84.4645,275.6542,5.8873e-05,6.49e-06,0.0,0 STARLINK-5177,1 54090U 22136AR  24052.09289440  .00000649  00000-0  58873-4 0  9995,2 54090  53.2179  90.1232 0001708  84.4645 275.6542 15.08834020 74598,6917.899,95.438,540.945,538.582,0.0
54090.0,STARLINK-5177,PAYLOAD,2024-02-21 10:10:41,15.08842421,0.0001437,53.2163,88.6371,88.476,271.6397,9.1072e-05,1.162e-05,0.0,0 STARLINK-5177,1 54090U 22136AR  24052.42408738  .00001162  00000-0  91072-4 0  9994,2 54090  53.2163  88.6371 0001437  88.4760 271.6397 15.08842421 74642,6917.873,95.437,540.732,538.744,0.0
54090.0,STARLINK-5177,PAYLOAD,2024-02-21 19:43:00,15.08839857,0.0001396,53.2162,86.853,88.0109,272.1043,6.9156e-05,8.13e-06,0.0,0 STARLINK-5177,1 54090U 22136AR  24052.82152905  .00000813  00000-0  69156-4 0  9990,2 54090  53.2162  86.8530 0001396  88.0109 272.1043 15.08839857 74233,6917.881,95.438,540.712,538.78,0.0
54090.0,STARLINK-5177,PAYLOAD,2024-02-22 02:04:32,15.08835947,0.0001462,53.2163,85.6631,91.5194,268.5965,6.1092e-05,6.84e-06,0.0,0 STARLINK-5177,1 54090U 22136AR  24053.08649216  .00000684  00000-0  61092-4 0  9992,2 54090  53.2163  85.6631 0001462  91.5194 268.5965 15.08835947 74744,6917.893,95.438,540.769,538.746,0.0
54090.0,STARLINK-5177,PAYLOAD,2024-02-22 08:26:05,15.08838158,0.0001367,53.2155,84.4718,98.7785,261.3362,9.6075e-05,1.241e-05,0.0,0 STARLINK-5177,1 54090U 22136AR  24053.35144947  .00001241  00000-0  96075-4 0  9992,2 54090  53.2155  84.4718 0001367  98.7785 261.3362 15.08838158 74319,6917.886,95.438,540.697,538.805,0.0
54090.0,STARLINK-5177,PAYLOAD,2024-02-22 19:33:47,15.08842709,0.0001341,53.2161,82.3913,100.6737,259.4406,9.1051e-06,-1.43e-06,0.0,0 STARLINK-5177,1 54090U 22136AR  24053.81512874 -.00000143  00000-0  91051-5 0  9992,2 54090  53.2161  82.3913 0001341 100.6737 259.4406 15.08842709 74383,6917.872,95.437,540.665,538.809,0.0
54090.0,STARLINK-5177,PAYLOAD,2024-02-23 11:27:38,15.08847536,0.0001495,53.2167,79.4173,89.5609,270.5554,7.0212e-05,8.3e-06,0.0,0 STARLINK-5177,1 54090U 22136AR  24054.47752448  .00000830  00000-0  70212-4 0  9995,2 54090  53.2167  79.4173 0001495  89.5609 270.5554 15.08847536 74951,6917.857,95.437,540.757,538.688,0.0
54090.0,STARLINK-5177,PAYLOAD,2024-02-24 11:18:25,15.08837226,0.0001673,53.2174,74.9544,105.5394,254.5783,5.6464e-05,6.11e-06,0.0,0 STARLINK-5177,1 54090U 22136AR  24055.47113248  .00000611  00000-0  56464-4 0  9995,2 54090  53.2174  74.9544 0001673 105.5394 254.5783 15.08837226 75108,6917.889,95.438,540.911,538.597,0.0
54090.0,STARLINK-5177,PAYLOAD,2024-02-24 17:39:58,15.08843435,0.0001572,53.2174,73.765,94.4736,265.6436,-4.1826e-05,-9.54e-06,0.0,0 STARLINK-5177,1 54090U 22136AR  24055.73609105 -.00000954  00000-0 -41826-4 0  9994,2 54090  53.2174  73.7650 0001572  94.4736 265.6436 15.08843435 74675,6917.87,95.437,540.822,538.647,0.0
54090.0,STARLINK-5177,PAYLOAD,2024-02-25 07:58:26,15.08841228,0.0001553,53.2174,71.0929,95.1196,264.9974,3.8576e-05,3.26e-06,0.0,0 STARLINK-5177,1 54090U 22136AR  24056.33225189  .00000326  00000-0  38576-4 0  9996,2 54090  53.2174  71.0929 0001553  95.1196 264.9974 15.08841228 74769,6917.877,95.437,540.816,538.667,0.0
54090.0,STARLINK-5177,PAYLOAD,2024-02-25 17:30:45,15.08842892,0.0001503,53.2174,69.309,93.8258,266.2906,1.0945e-05,-1.14e-06,0.0,0 STARLINK-5177,1 54090U 22136AR  24056.72969150 -.00000114  00000-0  10945-4 0  9998,2 54090  53.2174  69.3090 0001503  93.8258 266.2906 15.08842892 75294,6917.872,95.437,540.776,538.697,0.0
54090.0,STARLINK-5177,PAYLOAD,2024-02-26 10:59:59,15.08845219,0.0001542,53.2176,66.0366,103.626,256.4904,8.5857e-05,1.079e-05,0.0,0 STARLINK-5177,1 54090U 22136AR  24057.45832868  .00001079  00000-0  85857-4 0  9998,2 54090  53.2176  66.0366 0001542 103.6260 256.4904 15.08845219 74937,6917.864,95.437,540.796,538.663,0.0
54090.0,STARLINK-5177,PAYLOAD,2024-02-27 09:15:24,15.08838783,0.0001518,53.2182,61.8675,96.0984,264.0181,2.6633e-05,1.36e-06,0.0,0 STARLINK-5177,1 54090U 22136AR  24058.38569668  .00000136  00000-0  26633-4 0  9996,2 54090  53.2182  61.8675 0001518  96.0984 264.0181 15.08838783 75549,6917.884,95.438,540.799,538.699,0.0
54090.0,STARLINK-5177,PAYLOAD,2024-02-27 17:12:19,15.0886727,0.0001503,53.2186,60.3808,75.227,284.8888,-0.00035766,-5.98e-05,0.0,0 STARLINK-5177,1 54090U 22136AR  24058.71688768 -.00005980  00000-0 -35766-3 0  9996,2 54090  53.2186  60.3808 0001503  75.2270 284.8888 15.08867270 75598,6917.797,95.436,540.702,538.622,0.0
54090.0,STARLINK-5177,PAYLOAD,2024-02-28 04:20:02,15.08838761,0.0001579,53.2181,58.3065,91.9283,268.189,4.274e-05,3.92e-06,0.0,0 STARLINK-5177,1 54090U 22136AR  24059.18057877  .00000392  00000-0  42740-4 0  9990,2 54090  53.2181  58.3065 0001579  91.9283 268.1890 15.08838761 75666,6917.884,95.438,540.842,538.657,0.0
54090.0,STARLINK-5177,PAYLOAD,2024-02-28 07:30:48,15.08845452,0.0001487,53.218,57.7119,84.8291,275.287,-1.9042e-05,-5.91e-06,0.0,0 STARLINK-5177,1 54090U 22136AR  24059.31305690 -.00000591  00000-0 -19042-4 0  9996,2 54090  53.2180  57.7119 0001487  84.8291 275.2870 15.08845452 75219,6917.864,95.437,540.757,538.7,0.0
54090.0,STARLINK-5177,PAYLOAD,2024-02-28 17:03:06,15.08840255,0.0001521,53.218,55.9266,98.8026,261.3139,-3.5518e-06,-3.45e-06,0.0,0 STARLINK-5177,1 54090U 22136AR  24059.71049761 -.00000345  00000-0 -35518-5 0  9998,2 54090  53.2180  55.9266 0001521  98.8026 261.3139 15.08840255 75278,6917.88,95.438,540.797,538.692,0.0
54090.0,STARLINK-5177,PAYLOAD,2024-02-29 05:46:12,15.0883695,0.0001367,53.2164,53.5466,94.4664,265.6485,2.9692e-05,1.85e-06,0.0,0 STARLINK-5177,1 54090U 22136AR  24060.24042137  .00000185  00000-0  29692-4 0  9993,2 54090  53.2164  53.5466 0001367  94.4664 265.6485 15.08836950 75823,6917.89,95.438,540.7,538.809,0.0
54090.0,STARLINK-5177,PAYLOAD,2024-02-29 08:56:58,15.08840857,0.0001502,53.2174,52.9491,94.3595,265.7569,4.8846e-05,4.9e-06,0.0,0 STARLINK-5177,1 54090U 22136AR  24060.37289833  .00000490  00000-0  48846-4 0  9994,2 54090  53.2174  52.9491 0001502  94.3595 265.7569 15.08840857 75373,6917.878,95.438,540.782,538.704,0.0
54090.0,STARLINK-5177,PAYLOAD,2024-02-29 16:53:54,15.08842273,0.0001478,53.2171,51.4632,94.2092,265.9069,2.6804e-05,1.39e-06,0.0,0 STARLINK-5177,1 54090U 22136AR  24060.70409764  .00000139  00000-0  26804-4 0  9998,2 54090  53.2171  51.4632 0001478  94.2092 265.9069 15.08842273 75421,6917.873,95.437,540.761,538.716,0.0
54090.0,STARLINK-5177,PAYLOAD,2024-03-01 08:47:45,15.08847863,0.00015,53.2168,48.489,106.9157,253.2,3.3873e-05,2.51e-06,0.0,0 STARLINK-5177,1 54090U 22136AR  24061.36649336  .00000251  00000-0  33873-4 0  9991,2 54090  53.2168  48.4890 0001500 106.9157 253.2000 15.08847863 75524,6917.856,95.437,540.759,538.684,0.0
